NORAD_CAT_ID,OBJECT_NAME,OBJECT_TYPE,EPOCH,MEAN_MOTION,ECCENTRICITY,INCLINATION,RA_OF_ASC_NODE,ARG_OF_PERICENTER,MEAN_ANOMALY,BSTAR,MEAN_MOTION_DOT,MEAN_MOTION_DDOT,TLE_LINE0,TLE_LINE1,TLE_LINE2,SEMIMAJOR_AXIS,PERIOD,APOGEE,PERIGEE,DECAYED
53869.0,STARLINK-4810,PAYLOAD,2023-06-11 18:54:45,15.08837873,0.0001121,53.218,91.5021,91.2355,268.8765,9.4472e-05,1.216e-05,0.0,0 STARLINK-4810,1 53869U 22114BD  23162.78802311  .00001216  00000-0  94472-4 0  9995,2 53869  53.2180  91.5021 0001121  91.2355 268.8765 15.08837873 42008,6917.887,95.438,540.527,538.976,0.0
53869.0,STARLINK-4810,PAYLOAD,2023-06-12 01:16:17,15.08841344,0.0001117,53.218,90.3128,91.1766,268.9355,0.00011446,1.534e-05,0.0,0 STARLINK-4810,1 53869U 22114BD  23163.05298034  .00001534  00000-0  11446-3 0  9999,2 53869  53.2180  90.3128 0001117  91.1766 268.9355 15.08841344 41501,6917.876,95.437,540.514,538.969,0.0
53869.0,STARLINK-4810,PAYLOAD,2023-06-12 12:23:59,15.08841356,9.94e-05,53.2172,88.2305,91.2692,268.8414,4.8058e-05,4.77e-06,0.0,0 STARLINK-4810,1 53869U 22114BD  23163.51666156  .00000477  00000-0  48058-4 0  9999,2 53869  53.2172  88.2305 0000994  91.2692 268.8414 15.08841356 42112,6917.876,95.437,540.429,539.054,0.0
53869.0,STARLINK-4810,PAYLOAD,2023-06-12 23:31:42,15.08822877,9.63e-05,53.2172,86.1488,92.2835,267.8268,0.00018778,2.701e-05,0.0,0 STARLINK-4810,1 53869U 22114BD  23163.98035048  .00002701  00000-0  18778-3 0  9997,2 53869  53.2172  86.1488 0000963  92.2835 267.8268 15.08822877 41647,6917.933,95.439,540.464,539.132,0.0
53869.0,STARLINK-4810,PAYLOAD,2023-06-13 18:36:19,15.08839392,0.0001145,53.2169,82.5806,88.7367,271.3756,3.0602e-06,-2.39e-06,0.0,0 STARLINK-4810,1 53869U 22114BD  23164.77522576 -.00000239  00000-0  30602-5 0  9999,2 53869  53.2169  82.5806 0001145  88.7367 271.3756 15.08839392 41765,6917.882,95.438,540.539,538.955,0.0
53869.0,STARLINK-4810,PAYLOAD,2023-06-14 04:08:37,15.08843968,0.0001122,53.2171,80.7965,84.5575,275.5545,2.792e-05,1.57e-06,0.0,0 STARLINK-4810,1 53869U 22114BD  23165.17266191  .00000157  00000-0  27920-4 0  9998,2 53869  53.2171  80.7965 0001122  84.5575 275.5545 15.08843968 42367,6917.868,95.437,540.509,538.957,0.0
53869.0,STARLINK-4810,PAYLOAD,2023-06-14 18:27:06,15.08835051,0.0001317,53.2175,78.1184,91.7549,268.3594,2.1008e-05,4.6e-07,0.0,0 STARLINK-4810,1 53869U 22114BD  23165.76882784  .00000046  00000-0  21008-4 0  9993,2 53869  53.2175  78.1184 0001317  91.7549 268.3594 15.08835051 42450,6917.896,95.438,540.672,538.849,0.0
53869.0,STARLINK-4810,PAYLOAD,2023-06-15 00:48:38,15.0884007,0.0001335,53.2175,76.9284,94.2329,265.8816,5.7927e-05,6.34e-06,0.0,0 STARLINK-4810,1 53869U 22114BD  23166.03378374  .00000634  00000-0  57927-4 0  9991,2 53869  53.2175  76.9284 0001335  94.2329 265.8816 15.08840070 41951,6917.88,95.438,540.669,538.822,0.0
53869.0,STARLINK-4810,PAYLOAD,2023-06-15 03:59:25,15.08845288,0.000135,53.2177,76.3341,92.5671,267.5476,-3.6212e-05,-8.64e-06,0.0,0 STARLINK-4810,1 53869U 22114BD  23166.16626393 -.00000864  00000-0 -36212-4 0  9993,2 53869  53.2177  76.3341 0001350  92.5671 267.5476 15.08845288 42519,6917.864,95.437,540.663,538.795,0.0
53869.0,STARLINK-4810,PAYLOAD,2023-06-16 10:11:44,15.08846775,0.0001074,53.2175,70.6838,87.4873,272.6242,5.8827e-05,6.49e-06,0.0,0 STARLINK-4810,1 53869U 22114BD  23167.42481934  .00000649  00000-0  58827-4 0  9998,2 53869  53.2175  70.6838 0001074  87.4873 272.6242 15.08846775 42166,6917.86,95.437,540.468,538.982,0.0
53869.0,STARLINK-4810,PAYLOAD,2023-06-16 18:08:40,15.08839472,0.0001077,53.2179,69.1981,92.2468,267.8648,1.5989e-05,-3.3e-07,0.0,0 STARLINK-4810,1 53869U 22114BD  23167.75602581 -.00000033  00000-0  15989-4 0  9997,2 53869  53.2179  69.1981 0001077  92.2468 267.8648 15.08839472 42756,6917.882,95.438,540.492,539.002,0.0
53869.0,STARLINK-4810,PAYLOAD,2023-06-17 10:02:32,15.08830411,0.0001027,53.2172,66.2231,86.5582,273.5528,-5.061e-05,-1.093e-05,0.0,0 STARLINK-4810,1 53869U 22114BD  23168.41843261 -.00001093  00000-0 -50610-4 0  9991,2 53869  53.2172  66.2231 0001027  86.5582 273.5528 15.08830411 42310,6917.91,95.438,540.485,539.064,0.0
53869.0,STARLINK-4810,PAYLOAD,2023-06-17 19:34:52,15.08822142,0.0001219,53.2171,64.4405,91.9765,268.1366,-0.00018915,-3.295e-05,0.0,0 STARLINK-4810,1 53869U 22114BD  23168.81588723 -.00003295  00000-0 -18915-3 0  9991,2 53869  53.2171  64.4405 0001219  91.9765 268.1366 15.08822142 42916,6917.935,95.439,540.643,538.957,0.0
53869.0,STARLINK-4810,PAYLOAD,2023-06-18 03:31:47,15.08828639,9.71e-05,53.2162,62.9534,98.9686,261.1416,-0.00013201,-2.387e-05,0.0,0 STARLINK-4810,1 53869U 22114BD  23169.14708281 -.00002387  00000-0 -13201-3 0  9995,2 53869  53.2162  62.9534 0000971  98.9686 261.1416 15.08828639 42427,6917.915,95.438,540.452,539.108,0.0
53869.0,STARLINK-4810,PAYLOAD,2023-06-18 09:53:20,15.08831569,0.0001001,53.2178,61.7654,101.3318,258.7786,-8.1387e-05,-1.582e-05,0.0,0 STARLINK-4810,1 53869U 22114BD  23169.41204102 -.00001582  00000-0 -81387-4 0  9995,2 53869  53.2178  61.7654 0001001 101.3318 258.7786 15.08831569 43003,6917.906,95.438,540.464,539.079,0.0
53869.0,STARLINK-4810,PAYLOAD,2023-06-18 19:25:39,15.08831446,9.67e-05,53.2176,59.9813,95.1604,264.9498,1.492e-05,-5e-07,0.0,0 STARLINK-4810,1 53869U 22114BD  23169.80948065 -.00000050  00000-0  14920-4 0  9998,2 53869  53.2176  59.9813 0000967  95.1604 264.9498 15.08831446 43064,6917.907,95.438,540.44,539.103,0.0
53869.0,STARLINK-4810,PAYLOAD,2023-06-19 01:47:11,15.08842493,9.56e-05,53.2175,58.7915,94.8135,265.2967,2.4606e-05,1.04e-06,0.0,0 STARLINK-4810,1 53869U 22114BD  23170.07443456  .00000104  00000-0  24606-4 0  9994,2 53869  53.2175  58.7915 0000956  94.8135 265.2967 15.08842493 42569,6917.873,95.437,540.399,539.076,0.0
53869.0,STARLINK-4810,PAYLOAD,2023-06-19 09:44:06,15.0884484,9.57e-05,53.2176,57.3045,96.0838,264.0263,-8.6013e-06,-4.25e-06,0.0,0 STARLINK-4810,1 53869U 22114BD  23170.40563415 -.00000425  00000-0 -86013-5 0  9998,2 53869  53.2176  57.3045 0000957  96.0838 264.0263 15.08844840 43154,6917.866,95.437,540.393,539.069,0.0
53869.0,STARLINK-4810,PAYLOAD,2023-06-20 09:34:54,15.08836756,8.84e-05,53.218,52.8421,101.5081,258.601,0.0001638,2.32e-05,0.0,0 STARLINK-4810,1 53869U 22114BD  23171.39923774  .00002320  00000-0  16380-3 0  9997,2 53869  53.2180  52.8421 0000884 101.5081 258.6010 15.08836756 42760,6917.89,95.438,540.367,539.144,0.0
53869.0,STARLINK-4810,PAYLOAD,2023-06-20 20:42:36,15.08840459,0.0001115,53.2178,50.7626,91.8903,268.2217,0.00010738,1.422e-05,0.0,0 STARLINK-4810,1 53869U 22114BD  23171.86291856  .00001422  00000-0  10738-3 0  9991,2 53869  53.2178  50.7626 0001115  91.8903 268.2217 15.08840459 43372,6917.879,95.438,540.515,538.973,0.0
53869.0,STARLINK-4810,PAYLOAD,2023-06-21 09:25:41,15.08845209,0.0001063,53.2174,48.3849,85.1348,274.9765,3.5242e-05,2.73e-06,0.0,0 STARLINK-4810,1 53869U 22114BD  23172.39283621  .00000273  00000-0  35242-4 0  9992,2 53869  53.2174  48.3849 0001063  85.1348 274.9765 15.08845209 43458,6917.864,95.437,540.465,538.994,0.0
53869.0,STARLINK-4810,PAYLOAD,2023-06-21 18:57:59,15.0884413,0.0001047,53.2171,46.6004,86.3215,273.7897,-8.6575e-07,-3.02e-06,0.0,0 STARLINK-4810,1 53869U 22114BD  23172.79027659 -.00000302  00000-0 -86575-6 0  9995,2 53869  53.2171  46.6004 0001047  86.3215 273.7897 15.08844130 43519,6917.868,95.437,540.457,539.008,0.0
53869.0,STARLINK-4810,PAYLOAD,2023-06-22 01:19:31,15.08851674,0.0001005,53.2177,45.4095,95.3133,264.7974,-1.7592e-06,-3.16e-06,0.0,0 STARLINK-4810,1 53869U 22114BD  23173.05523019 -.00000316  00000-0 -17592-5 0  9993,2 53869  53.2177  45.4095 0001005  95.3133 264.7974 15.08851674 43017,6917.845,95.437,540.405,539.014,0.0
53869.0,STARLINK-4810,PAYLOAD,2023-06-22 18:48:46,15.08839666,9.01e-05,53.2171,42.1395,82.3555,277.754,5.4101e-05,5.73e-06,0.0,0 STARLINK-4810,1 53869U 22114BD  23173.78387654  .00000573  00000-0  54101-4 0  9995,2 53869  53.2171  42.1395 0000901  82.3555 277.7540 15.08839666 43128,6917.881,95.438,540.37,539.123,0.0
53869.0,STARLINK-4810,PAYLOAD,2023-06-23 01:10:18,15.08846563,0.0001035,53.218,40.9494,97.2617,262.8493,8.8928e-05,1.128e-05,0.0,0 STARLINK-4810,1 53869U 22114BD  23174.04883082  .00001128  00000-0  88928-4 0  9992,2 53869  53.2180  40.9494 0001035  97.2617 262.8493 15.08846563 43167,6917.86,95.437,540.441,539.009,0.0
53869.0,STARLINK-4810,PAYLOAD,2023-06-23 18:39:34,15.08837653,0.0001077,53.2182,37.678,96.718,263.3934,3.1363e-05,2.11e-06,0.0,0 STARLINK-4810,1 53869U 22114BD  23174.77747840  .00000211  00000-0  31363-4 0  9996,2 53869  53.2182  37.6780 0001077  96.7180 263.3934 15.08837653 43273,6917.888,95.438,540.498,539.008,0.0
53869.0,STARLINK-4810,PAYLOAD,2023-06-24 01:01:06,15.08845468,9.07e-05,53.2176,36.4892,81.5908,278.5187,5.0339e-05,5.14e-06,0.0,0 STARLINK-4810,1 53869U 22114BD  23175.04243326  .00000514  00000-0  50339-4 0  9997,2 53869  53.2176  36.4892 0000907  81.5908 278.5187 15.08845468 43314,6917.864,95.437,540.356,539.101,0.0
53869.0,STARLINK-4810,PAYLOAD,2023-06-24 07:22:39,15.08839293,9.62e-05,53.2179,35.2989,76.8841,283.2259,2.2895e-06,-2.51e-06,0.0,0 STARLINK-4810,1 53869U 22114BD  23175.30739889 -.00000251  00000-0  22895-5 0  9996,2 53869  53.2179  35.2989 0000962  76.8841 283.2259 15.08839293 43351,6917.883,95.438,540.413,539.082,0.0
53869.0,STARLINK-4810,PAYLOAD,2023-06-25 15:10:22,15.08834043,9.23e-05,53.2176,29.3527,86.339,273.7708,2.4322e-05,9.9e-07,0.0,0 STARLINK-4810,1 53869U 22114BD  23176.63220576  .00000099  00000-0  24322-4 0  9996,2 53869  53.2176  29.3527 0000923  86.3390 273.7708 15.08834043 43555,6917.899,95.438,540.402,539.125,0.0
53869.0,STARLINK-4810,PAYLOAD,2023-06-26 00:42:40,15.08845984,9.72e-05,53.2179,27.5685,89.1496,270.9608,0.00011457,1.536e-05,0.0,0 STARLINK-4810,1 53869U 22114BD  23177.02963572  .00001536  00000-0  11457-3 0  9991,2 53869  53.2179  27.5685 0000972  89.1496 270.9608 15.08845984 43616,6917.862,95.437,540.4,539.055,0.0
